NORAD_CAT_ID,OBJECT_NAME,OBJECT_TYPE,EPOCH,MEAN_MOTION,ECCENTRICITY,INCLINATION,RA_OF_ASC_NODE,ARG_OF_PERICENTER,MEAN_ANOMALY,BSTAR,MEAN_MOTION_DOT,MEAN_MOTION_DDOT,TLE_LINE0,TLE_LINE1,TLE_LINE2,SEMIMAJOR_AXIS,PERIOD,APOGEE,PERIGEE,DECAYED
56493.0,STARLINK-5841,PAYLOAD,2024-02-23 14:26:14,14.98332146,0.0002823,70.0,162.89,267.4155,92.6681,3.5872e-05,3.35e-06,0.0,0 STARLINK-5841,1 56493U 23064AX  24054.60156069  .00000335  00000-0  35872-4 0  9990,2 56493  70.0000 162.8900 0002823 267.4155  92.6681 14.98332146 45122,6950.186,96.107,574.013,570.089,0.0
56493.0,STARLINK-5841,PAYLOAD,2024-02-23 17:38:30,14.98335015,0.0002897,69.9997,162.5527,269.5035,90.5792,6.3979e-05,6.71e-06,0.0,0 STARLINK-5841,1 56493U 23064AX  24054.73507784  .00000671  00000-0  63979-4 0  9990,2 56493  69.9997 162.5527 0002897 269.5035  90.5792 14.98335015 45147,6950.177,96.107,574.056,570.029,0.0
56493.0,STARLINK-5841,PAYLOAD,2024-02-24 14:28:16,14.98326534,0.0002881,69.9997,160.3649,266.2852,93.7977,-2.6074e-06,-1.24e-06,0.0,0 STARLINK-5841,1 56493U 23064AX  24055.60296497 -.00000124  00000-0 -26074-5 0  9994,2 56493  69.9997 160.3649 0002881 266.2852  93.7977 14.98326534 45272,6950.204,96.107,574.071,570.066,0.0
56493.0,STARLINK-5841,PAYLOAD,2024-02-25 12:54:07,14.9834779,0.0003026,69.9992,158.007,266.3189,93.7624,0.00014213,1.604e-05,0.0,0 STARLINK-5841,1 56493U 23064AX  24056.53758537  .00001604  00000-0  14213-3 0  9997,2 56493  69.9992 158.0070 0003026 266.3189  93.7624 14.98347790 45776,6950.138,96.106,574.106,569.9,0.0
56493.0,STARLINK-5841,PAYLOAD,2024-02-25 14:30:15,14.9834875,0.0002945,69.9992,157.8385,266.1007,93.9816,0.00014921,1.689e-05,0.0,0 STARLINK-5841,1 56493U 23064AX  24056.60434385  .00001689  00000-0  14921-3 0  9996,2 56493  69.9992 157.8385 0002945 266.1007  93.9816 14.98348750 45422,6950.135,96.106,574.047,569.953,0.0
56493.0,STARLINK-5841,PAYLOAD,2024-02-25 16:06:23,14.98350317,0.0002898,69.9993,157.6706,267.6239,92.4589,0.00017179,1.958e-05,0.0,0 STARLINK-5841,1 56493U 23064AX  24056.67110184  .00001958  00000-0  17179-3 0  9998,2 56493  69.9993 157.6706 0002898 267.6239  92.4589 14.98350317 45432,6950.13,96.106,574.009,569.981,0.0
56493.0,STARLINK-5841,PAYLOAD,2024-02-26 00:07:04,14.98331895,0.0002411,69.9996,156.8284,284.3698,75.7193,4.1095e-05,3.97e-06,0.0,0 STARLINK-5841,1 56493U 23064AX  24057.00491693  .00000397  00000-0  41095-4 0  9994,2 56493  69.9996 156.8284 0002411 284.3698  75.7193 14.98331895 45843,6950.187,96.107,573.728,570.376,0.0
56493.0,STARLINK-5841,PAYLOAD,2024-02-26 11:20:02,14.9831099,0.0003017,69.9993,155.6507,274.2228,85.8587,-0.00015563,-1.949e-05,0.0,0 STARLINK-5841,1 56493U 23064AX  24057.47225452 -.00001949  00000-0 -15563-3 0  9999,2 56493  69.9993 155.6507 0003017 274.2228  85.8587 14.98310990 45915,6950.252,96.108,574.214,570.02,0.0
56493.0,STARLINK-5841,PAYLOAD,2024-02-26 14:32:18,14.98315121,0.0003065,69.9988,155.3128,274.3447,85.7361,-0.0001577,-1.973e-05,0.0,0 STARLINK-5841,1 56493U 23064AX  24057.60577297 -.00001973  00000-0 -15770-3 0  9998,2 56493  69.9988 155.3128 0003065 274.3447  85.7361 14.98315121 45574,6950.239,96.108,574.234,569.974,0.0
56493.0,STARLINK-5841,PAYLOAD,2024-02-26 16:08:26,14.98316646,0.0003026,69.9991,155.1448,274.5453,85.536,-0.00013601,-1.715e-05,0.0,0 STARLINK-5841,1 56493U 23064AX  24057.67253189 -.00001715  00000-0 -13601-3 0  9991,2 56493  69.9991 155.1448 0003026 274.5453  85.5360 14.98316646 45588,6950.234,96.108,574.202,569.996,0.0
56493.0,STARLINK-5841,PAYLOAD,2024-02-27 11:22:02,14.9833737,0.0003038,69.999,153.1252,274.3308,85.7504,-0.00012501,-1.585e-05,0.0,0 STARLINK-5841,1 56493U 23064AX  24058.47364065 -.00001585  00000-0 -12501-3 0  9999,2 56493  69.9990 153.1252 0003038 274.3308  85.7504 14.98337370 46061,6950.17,96.107,574.147,569.924,0.0
56493.0,STARLINK-5841,PAYLOAD,2024-02-27 14:34:18,14.98339897,0.0003013,69.999,152.7886,274.7514,85.33,-9.377e-05,-1.212e-05,0.0,0 STARLINK-5841,1 56493U 23064AX  24058.60715760 -.00001212  00000-0 -93770-4 0  9991,2 56493  69.9990 152.7886 0003013 274.7514  85.3300 14.98339897 45723,6950.162,96.106,574.121,569.933,0.0
56493.0,STARLINK-5841,PAYLOAD,2024-02-27 16:10:26,14.98340451,0.0003008,69.999,152.6203,274.8051,85.2765,-8.331e-05,-1.087e-05,0.0,0 STARLINK-5841,1 56493U 23064AX  24058.67391666 -.00001087  00000-0 -83310-4 0  9992,2 56493  69.9990 152.6203 0003008 274.8051  85.2765 14.98340451 45739,6950.161,96.106,574.116,569.935,0.0
56493.0,STARLINK-5841,PAYLOAD,2024-02-28 13:00:11,14.98322768,0.000303,69.9992,150.4329,277.1192,82.9623,0.00016204,1.841e-05,0.0,0 STARLINK-5841,1 56493U 23064AX  24059.54180207  .00001841  00000-0  16204-3 0  9999,2 56493  69.9992 150.4329 0003030 277.1192  82.9623 14.98322768 46226,6950.215,96.107,574.186,569.974,0.0
56493.0,STARLINK-5841,PAYLOAD,2024-02-28 14:36:19,14.98323545,0.000302,69.9992,150.2644,277.4917,82.5898,0.00016801,1.912e-05,0.0,0 STARLINK-5841,1 56493U 23064AX  24059.60856169  .00001912  00000-0  16801-3 0  9995,2 56493  69.9992 150.2644 0003020 277.4917  82.5898 14.98323545 45875,6950.213,96.107,574.177,569.979,0.0
56493.0,STARLINK-5841,PAYLOAD,2024-02-28 16:12:27,14.98324448,0.0003011,69.9992,150.0961,277.4927,82.589,0.00017441,1.988e-05,0.0,0 STARLINK-5841,1 56493U 23064AX  24059.67532118  .00001988  00000-0  17441-3 0  9991,2 56493  69.9992 150.0961 0003011 277.4927  82.5890 14.98324448 45882,6950.21,96.107,574.168,569.982,0.0
56493.0,STARLINK-5841,PAYLOAD,2024-02-29 11:26:05,14.98303135,0.0002854,69.9996,148.0766,269.5443,90.5389,0.00036871,4.306e-05,0.0,0 STARLINK-5841,1 56493U 23064AX  24060.47645140  .00004306  00000-0  36871-3 0  9996,2 56493  69.9996 148.0766 0002854 269.5443  90.5389 14.98303135 46361,6950.276,96.109,574.125,570.157,0.0
56493.0,STARLINK-5841,PAYLOAD,2024-02-29 14:38:20,14.9834623,0.0002958,69.9996,147.74,275.6301,84.452,-0.00037921,-4.617e-05,0.0,0 STARLINK-5841,1 56493U 23064AX  24060.60996293 -.00004617  00000-0 -37921-3 0  9993,2 56493  69.9996 147.7400 0002958 275.6301  84.4520 14.98346230 46023,6950.143,96.106,574.064,569.952,0.0
56493.0,STARLINK-5841,PAYLOAD,2024-02-29 16:14:29,14.9832727,0.0002894,69.9996,147.5716,277.5439,82.5391,-4.5959e-05,-6.41e-06,0.0,0 STARLINK-5841,1 56493U 23064AX  24060.67672766 -.00000641  00000-0 -45959-4 0  9990,2 56493  69.9996 147.5716 0002894 277.5439  82.5391 14.98327270 46391,6950.201,96.107,574.078,570.055,0.0
56493.0,STARLINK-5841,PAYLOAD,2024-02-29 22:39:00,14.98346502,0.0003232,69.9988,146.8956,282.1597,77.9199,-0.00020249,-2.509e-05,0.0,0 STARLINK-5841,1 56493U 23064AX  24060.94375753 -.00002509  00000-0 -20249-3 0  9995,2 56493  69.9988 146.8956 0003232 282.1597  77.9199 14.98346502 46072,6950.142,96.106,574.253,569.761,0.0
56493.0,STARLINK-5841,PAYLOAD,2024-03-01 14:40:20,14.98339826,0.0003144,69.9988,145.2141,275.8737,84.2064,7.3879e-05,7.89e-06,0.0,0 STARLINK-5841,1 56493U 23064AX  24061.61135328  .00000789  00000-0  73879-4 0  9996,2 56493  69.9988 145.2141 0003144 275.8737  84.2064 14.98339826 46172,6950.163,96.106,574.213,569.842,0.0
56493.0,STARLINK-5841,PAYLOAD,2024-03-02 11:30:06,14.98329674,0.0002963,69.999,143.026,273.363,86.719,2.0858e-05,1.56e-06,0.0,0 STARLINK-5841,1 56493U 23064AX  24062.47923907  .00000156  00000-0  20858-4 0  9996,2 56493  69.9990 143.0260 0002963 273.3630  86.7190 14.98329674 46667,6950.194,96.107,574.118,570.0,0.0
56493.0,STARLINK-5841,PAYLOAD,2024-03-02 13:06:14,14.98329379,0.0002941,69.999,142.8578,273.3144,86.7679,2.7613e-05,2.36e-06,0.0,0 STARLINK-5841,1 56493U 23064AX  24062.54599917  .00000236  00000-0  27613-4 0  9999,2 56493  69.9990 142.8578 0002941 273.3144  86.7679 14.98329379 46318,6950.195,96.107,574.104,570.016,0.0
56493.0,STARLINK-5841,PAYLOAD,2024-03-02 14:42:22,14.9833006,0.0002847,69.9993,142.6891,269.3076,90.7757,1.7352e-05,1.14e-06,0.0,0 STARLINK-5841,1 56493U 23064AX  24062.61275892  .00000114  00000-0  17352-4 0  9994,2 56493  69.9993 142.6891 0002847 269.3076  90.7757 14.98330060 46323,6950.193,96.107,574.036,570.079,0.0
56493.0,STARLINK-5841,PAYLOAD,2024-03-03 11:32:07,14.98330352,0.0003031,69.999,140.5012,269.8438,90.2374,-6.3705e-05,-8.53e-06,0.0,0 STARLINK-5841,1 56493U 23064AX  24063.48064009 -.00000853  00000-0 -63705-4 0  9991,2 56493  69.9990 140.5012 0003031 269.8438  90.2374 14.98330352 46813,6950.192,96.107,574.163,569.95,0.0
56493.0,STARLINK-5841,PAYLOAD,2024-03-03 14:44:23,14.98327982,0.0002789,69.9994,140.1641,267.4444,92.6395,-6.8833e-05,-9.14e-06,0.0,0 STARLINK-5841,1 56493U 23064AX  24063.61416185 -.00000914  00000-0 -68833-4 0  9997,2 56493  69.9994 140.1641 0002789 267.4444  92.6395 14.98327982 46477,6950.199,96.107,574.003,570.126,0.0
56493.0,STARLINK-5841,PAYLOAD,2024-03-04 05:09:35,14.98338976,0.000303,69.9987,138.6501,269.1338,90.9474,7.9124e-05,8.51e-06,0.0,0 STARLINK-5841,1 56493U 23064AX  24064.21498856  .00000851  00000-0  79124-4 0  9992,2 56493  69.9987 138.6501 0003030 269.1338  90.9474 14.98338976 46921,6950.165,96.106,574.136,569.924,0.0
56493.0,STARLINK-5841,PAYLOAD,2024-03-04 14:46:22,14.98346328,0.0003035,69.9985,137.6403,269.1619,90.9192,0.00016466,1.873e-05,0.0,0 STARLINK-5841,1 56493U 23064AX  24064.61553874  .00001873  00000-0  16466-3 0  9992,2 56493  69.9985 137.6403 0003035 269.1619  90.9192 14.98346328 46620,6950.142,96.106,574.117,569.898,0.0
56493.0,STARLINK-5841,PAYLOAD,2024-03-05 03:35:29,14.98316911,0.000312,69.9984,136.2937,268.0909,91.9893,-0.00011662,-1.484e-05,0.0,0 STARLINK-5841,1 56493U 23064AX  24065.14964591 -.00001484  00000-0 -11662-3 0  9996,2 56493  69.9984 136.2937 0003120 268.0909  91.9893 14.98316911 47064,6950.233,96.108,574.267,569.93,0.0
56493.0,STARLINK-5841,PAYLOAD,2024-03-05 13:12:18,14.98313302,0.0003122,69.9981,135.2829,269.6826,90.3976,-0.00014683,-1.844e-05,0.0,0 STARLINK-5841,1 56493U 23064AX  24065.55021248 -.00001844  00000-0 -14683-3 0  9990,2 56493  69.9981 135.2829 0003122 269.6826  90.3976 14.98313302 46769,6950.245,96.108,574.279,569.94,0.0
